{
  "type": "FeatureCollection",
  "features": [
    {
      "type": "Feature",
      "properties": {
        "norad_id": 38709,
        "name": "EXACTVIEW-1 (ADS-1B)",
        "group": "resource",
        "lat": -43.79455884904276,
        "lon": -99.83440289416077,
        "alt_km": 822.0998321585603,
        "timestamp": "2025-12-06T14:35:36.784349+00:00",
        "meta_object_name": "EXACTVIEW-1 (ADS-1B)",
        "meta_object_id": "2012-039C",
        "meta_epoch": "2025-12-06T06:48:08.630208",
        "meta_mean_motion": 14.24903906,
        "meta_eccentricity": 0.0011011,
        "meta_inclination": 98.9635,
        "meta_ra_of_asc_node": 88.5381,
        "meta_arg_of_pericenter": 12.6195,
        "meta_mean_anomaly": 347.5257,
        "meta_ephemeris_type": 0,
        "meta_classification_type": "U",
        "meta_norad_cat_id": 38709,
        "meta_element_set_no": 999,
        "meta_rev_at_epoch": 69523,
        "meta_bstar": 0.00016500663,
        "meta_mean_motion_dot": 3.39e-06,
        "meta_mean_motion_ddot": 0,
        "tle_line1": "1 38709U 12039C   25340.28343322  .00000339  00000+0  16501-3 0  9993",
        "tle_line2": "2 38709  98.9635  88.5381 0011011  12.6195 347.5257 14.24903906695236"
      },
      "geometry": {
        "type": "Point",
        "coordinates": [
          -99.83440289416077,
          -43.79455884904276
        ]
      }
    },
    {
      "type": "Feature",
      "properties": {
        "norad_id": 38755,
        "name": "SPOT 6",
        "group": "resource",
        "lat": -49.872558799509406,
        "lon": -144.29358785949313,
        "alt_km": 705.089498438887,
        "timestamp": "2025-12-06T14:35:36.784359+00:00",
        "meta_object_name": "SPOT 6",
        "meta_object_id": "2012-047A",
        "meta_epoch": "2025-12-06T06:57:16.207488",
        "meta_mean_motion": 14.58594278,
        "meta_eccentricity": 0.00010652,
        "meta_inclination": 98.1582,
        "meta_ra_of_asc_node": 45.1928,
        "meta_arg_of_pericenter": 101.4936,
        "meta_mean_anomaly": 258.6383,
        "meta_ephemeris_type": 0,
        "meta_classification_type": "U",
        "meta_norad_cat_id": 38755,
        "meta_element_set_no": 999,
        "meta_rev_at_epoch": 70493,
        "meta_bstar": 0.00020020397,
        "meta_mean_motion_dot": 8.86e-06,
        "meta_mean_motion_ddot": 0,
        "tle_line1": "1 38755U 12047A   25340.28977092  .00000886  00000+0  20020-3 0  9998",
        "tle_line2": "2 38755  98.1582  45.1928 0001065 101.4936 258.6383 14.58594278704939"
      },
      "geometry": {
        "type": "Point",
        "coordinates": [
          -144.29358785949313,
          -49.872558799509406
        ]
      }
    },
    {
      "type": "Feature",
      "properties": {
        "norad_id": 39019,
        "name": "PLEIADES 1B",
        "group": "resource",
        "lat": 49.09118229188695,
        "lon": -117.08767747244246,
        "alt_km": 692.8132962131349,
        "timestamp": "2025-12-06T14:35:36.784369+00:00",
        "meta_object_name": "PLEIADES 1B",
        "meta_object_id": "2012-068A",
        "meta_epoch": "2025-12-06T05:46:00.110784",
        "meta_mean_motion": 14.58543573,
        "meta_eccentricity": 0.00012248,
        "meta_inclination": 98.1803,
        "meta_ra_of_asc_node": 52.9945,
        "meta_arg_of_pericenter": 87.0209,
        "meta_mean_anomaly": 273.1131,
        "meta_ephemeris_type": 0,
        "meta_classification_type": "U",
        "meta_norad_cat_id": 39019,
        "meta_element_set_no": 999,
        "meta_rev_at_epoch": 69272,
        "meta_bstar": 0.00020588618,
        "meta_mean_motion_dot": 9.11e-06,
        "meta_mean_motion_ddot": 0,
        "tle_line1": "1 39019U 12068A   25340.24027906  .00000911  00000+0  20589-3 0  9990",
        "tle_line2": "2 39019  98.1803  52.9945 0001224  87.0209 273.1131 14.58543573692721"
      },
      "geometry": {
        "type": "Point",
        "coordinates": [
          -117.08767747244246,
          49.09118229188695
        ]
      }
    },
    {
      "type": "Feature",
      "properties": {
        "norad_id": 39030,
        "name": "GOKTURK 2",
        "group": "resource",
        "lat": -23.082322369699405,
        "lon": -174.1356055857519,
        "alt_km": 650.0604873251996,
        "timestamp": "2025-12-06T14:35:36.784379+00:00",
        "meta_object_name": "GOKTURK 2",
        "meta_object_id": "2012-073A",
        "meta_epoch": "2025-12-06T04:55:55.670016",
        "meta_mean_motion": 14.75277595,
        "meta_eccentricity": 8.513e-05,
        "meta_inclination": 97.6905,
        "meta_ra_of_asc_node": 182.1804,
        "meta_arg_of_pericenter": 100.4617,
        "meta_mean_anomaly": 259.6689,
        "meta_ephemeris_type": 0,
        "meta_classification_type": "U",
        "meta_norad_cat_id": 39030,
        "meta_element_set_no": 999,
        "meta_rev_at_epoch": 69605,
        "meta_bstar": 0.00019369999,
        "meta_mean_motion_dot": 1.264e-05,
        "meta_mean_motion_ddot": 0,
        "tle_line1": "1 39030U 12073A   25340.20550544  .00001264  00000+0  19370-3 0  9992",
        "tle_line2": "2 39030  97.6905 182.1804 0000851 100.4617 259.6689 14.75277595696053"
      },
      "geometry": {
        "type": "Point",
        "coordinates": [
          -174.1356055857519,
          -23.082322369699405
        ]
      }
    },
    {
      "type": "Feature",
      "properties": {
        "norad_id": 39084,
        "name": "LANDSAT 8",
        "group": "resource",
        "lat": -27.928804022056763,
        "lon": 53.16025760882227,
        "alt_km": 708.6581188302453,
        "timestamp": "2025-12-06T14:35:36.784390+00:00",
        "meta_object_name": "LANDSAT 8",
        "meta_object_id": "2013-008A",
        "meta_epoch": "2025-12-06T06:28:57.054720",
        "meta_mean_motion": 14.57104571,
        "meta_eccentricity": 0.00011484,
        "meta_inclination": 98.208,
        "meta_ra_of_asc_node": 48.4389,
        "meta_arg_of_pericenter": 85.8578,
        "meta_mean_anomaly": 274.2752,
        "meta_ephemeris_type": 0,
        "meta_classification_type": "U",
        "meta_norad_cat_id": 39084,
        "meta_element_set_no": 999,
        "meta_rev_at_epoch": 66980,
        "meta_bstar": 0.00020335798,
        "meta_mean_motion_dot": 8.71e-06,
        "meta_mean_motion_ddot": 0,
        "tle_line1": "1 39084U 13008A   25340.27010480  .00000871  00000+0  20336-3 0  9994",
        "tle_line2": "2 39084  98.2080  48.4389 0001148  85.8578 274.2752 14.57104571669807"
      },
      "geometry": {
        "type": "Point",
        "coordinates": [
          53.16025760882227,
          -27.928804022056763
        ]
      }
    },
    {
      "type": "Feature",
      "properties": {
        "norad_id": 39086,
        "name": "SARAL",
        "group": "resource",
        "lat": 45.01454207040037,
        "lon": -6.724167121811203,
        "alt_km": 776.7643335219182,
        "timestamp": "2025-12-06T14:35:36.784400+00:00",
        "meta_object_name": "SARAL",
        "meta_object_id": "2013-009A",
        "meta_epoch": "2025-12-06T07:15:53.867520",
        "meta_mean_motion": 14.32753711,
        "meta_eccentricity": 0.00027163,
        "meta_inclination": 98.5506,
        "meta_ra_of_asc_node": 164.3171,
        "meta_arg_of_pericenter": 120.9784,
        "meta_mean_anomaly": 239.1668,
        "meta_ephemeris_type": 0,
        "meta_classification_type": "U",
        "meta_norad_cat_id": 39086,
        "meta_element_set_no": 999,
        "meta_rev_at_epoch": 66798,
        "meta_bstar": 0.00011818119,
        "meta_mean_motion_dot": 2.78e-06,
        "meta_mean_motion_ddot": 0,
        "tle_line1": "1 39086U 13009A   25340.30270680  .00000278  00000+0  11818-3 0  9997",
        "tle_line2": "2 39086  98.5506 164.3171 0002716 120.9784 239.1668 14.32753711667986"
      },
      "geometry": {
        "type": "Point",
        "coordinates": [
          -6.724167121811203,
          45.01454207040037
        ]
      }
    },
    {
      "type": "Feature",
      "properties": {
        "norad_id": 39150,
        "name": "GAOFEN-1",
        "group": "resource",
        "lat": 26.834630738580316,
        "lon": 47.33007556869515,
        "alt_km": 648.1789451835339,
        "timestamp": "2025-12-06T14:35:36.784410+00:00",
        "meta_object_name": "GAOFEN-1",
        "meta_object_id": "2013-018A",
        "meta_epoch": "2025-12-06T07:57:54.059616",
        "meta_mean_motion": 14.76517201,
        "meta_eccentricity": 0.0017847,
        "meta_inclination": 97.9335,
        "meta_ra_of_asc_node": 51.1042,
        "meta_arg_of_pericenter": 163.0719,
        "meta_mean_anomaly": 197.109,
        "meta_ephemeris_type": 0,
        "meta_classification_type": "U",
        "meta_norad_cat_id": 39150,
        "meta_element_set_no": 999,
        "meta_rev_at_epoch": 67978,
        "meta_bstar": 0.00024790819,
        "meta_mean_motion_dot": 1.681e-05,
        "meta_mean_motion_ddot": 0,
        "tle_line1": "1 39150U 13018A   25340.33187569  .00001681  00000+0  24791-3 0  9998",
        "tle_line2": "2 39150  97.9335  51.1042 0017847 163.0719 197.1090 14.76517201679781"
      },
      "geometry": {
        "type": "Point",
        "coordinates": [
          47.33007556869515,
          26.834630738580316
        ]
      }
    }
  ]
}